STARLINK-2510           
1 48329C 21036BF  26085.94145833 -.00045817  00000+0 -15828-2 0   854
2 48329  53.1549  20.8124 0001545  93.7800 351.1984 15.29414638    19
STARLINK-2501           
1 48330C 21036BG  26085.97965278 -.00114550  00000+0 -39584-2 0   858
2 48330  53.1548  20.5247 0001197  94.0901 282.5897 15.29439304    19
STARLINK-2514           
1 48331C 21036BH  26086.01506944 -.00070708  00000+0 -24458-2 0   867
2 48331  53.1551  20.3575 0001231  87.5121 145.8031 15.29385396    18
STARLINK-2518           
1 48333C 21036BK  26085.86229167  .00009674  00000+0  33419-3 0   859
2 48333  53.1544  21.1980 0001185  99.3353 339.4113 15.29387419    17
STARLINK-2470           
1 48334C 21036BL  26085.91506944 -.00012353  00000+0 -42742-3 0   856
2 48334  53.1548  20.9634 0001382  88.3530 295.7464 15.29346081    12
STARLINK-2613           
1 48353C 21038A   26085.90326389 -.00064321  00000+0 -21686-2 0   856
2 48353  53.1575 278.1678 0001089  76.7026   0.4339 15.30212838    19
STARLINK-2674           
1 48354C 21038B   26085.84006944 -.00107100  00000+0 -36099-2 0   859
2 48354  53.1570 278.5402 0001034  80.5601 344.9495 15.30241685    17
STARLINK-2635           
1 48355C 21038C   26085.91020833 -.00044746  00000+0 -15086-2 0   850
2 48355  53.1573 278.1473 0001050  76.5715  73.6656 15.30203441    17
STARLINK-2637           
1 48356C 21038D   26085.86368056 -.00092812  00000+0 -31290-2 0   859
2 48356  53.1572 278.3697 0001273  76.5403 194.6469 15.30228928    11
STARLINK-2636           
1 48357C 21038E   26085.93312500 -.00006876  00000+0 -23188-3 0   854
2 48357  53.1595 278.0332 0001470  82.6359 252.0362 15.30177105    18
STARLINK-2624           
1 48358C 21038F   26085.85743056 -.00045186  00000+0 -15235-2 0   850
2 48358  53.1584 278.4198 0001311  84.9070 180.8759 15.30201620    18
STARLINK-2628           
1 48359C 21038G   26085.92131944 -.00026677  00000+0 -89929-3 0   852
2 48359  53.1581 278.1037 0001449  80.9533 205.9930 15.30198052    11
STARLINK-2622           
1 48360C 21038H   26085.88312500 -.00014877  00000+0 -50156-3 0   857
2 48360  53.1587 278.2882 0001668  85.9300   7.8909 15.30187460    14
STARLINK-2591           
1 48361C 21038J   26085.98798611  .00006664  00000+0  22467-3 0   857
2 48361  53.1593 277.7736 0001244  86.4859 260.2172 15.30177029    16
STARLINK-2578           
1 48362C 21038K   26085.89840278 -.00013219  00000+0 -44561-3 0   850
2 48362  53.1577 278.2130 0000935  82.9480 344.7713 15.30191832    17
STARLINK-2611           
1 48364C 21038M   26085.87756944  .00030497  00000+0  10287-2 0   858
2 48364  53.1586 267.9745 0001135  77.8329 223.3664 15.30149351    10
STARLINK-2608           
1 48365C 21038N   26085.83034722 -.00070334  00000+0 -23708-2 0   856
2 48365  53.1571 268.2676 0001338  83.7643  26.7066 15.30222537    11
STARLINK-2643           
1 48367C 21038Q   26085.93798611 -.00000691  00000+0 -23318-4 0   851
2 48367  53.1573 265.2601 0000663  52.5396  85.4946 15.30172781    13
STARLINK-2623           
1 48368C 21038R   26085.86298611 -.00051953  00000+0 -17514-2 0   855
2 48368  53.1584 268.0165 0001141  87.6705  22.7908 15.30211461    18
STARLINK-2621           
1 48370C 21038T   26085.88104167  .00013819  00000+0  46584-3 0   859
2 48370  53.1581 267.9322 0001524  85.6885 251.9923 15.30176784    14
STARLINK-2589           
1 48371C 21038U   26085.87548611  .00019174  00000+0  64662-3 0   852
2 48371  53.1577 267.9609 0001216  84.2791 240.2780 15.30163390    18
STARLINK-2609           
1 48373C 21038W   26086.00812500  .00032769  00000+0  11051-2 0   860
2 48373  53.1580 265.0544 0001549  77.0723 122.2512 15.30156854    14
STARLINK-2604           
1 48374C 21038X   26085.96715278  .00013845  00000+0  46689-3 0   858
2 48374  53.1572 267.5470 0001169  83.3563  90.3132 15.30166730    18
STARLINK-2603           
1 48375C 21038Y   26085.96645833  .00043104  00000+0  14532-2 0   850
2 48375  53.1575 267.5487 0001378  84.7383  96.6801 15.30160424    13
STARLINK-2610           
1 48376C 21038Z   26085.94493056  .00056789  00000+0  19148-2 0   858
2 48376  53.1572 267.6526 0001072  75.6779   4.5166 15.30149912    16
STARLINK-2499           
1 48377C 21038AA  26085.84493056 -.00105010  00000+0 -35422-2 0   855
2 48377  53.1572 268.1188 0001139  90.4238 193.4114 15.30215677    19
STARLINK-2526           
1 48378C 21038AB  26085.87687500 -.00025082  00000+0 -84563-3 0   859
2 48378  53.1572 268.0091 0001012  90.7485 351.7005 15.30194312    19
STARLINK-2612           
1 48379C 21038AC  26085.99145833  .00019224  00000+0  64816-3 0   859
2 48379  53.1574 265.3805 0001102  80.9738   8.8281 15.30170098    18
STARLINK-2614           
1 48380C 21038AD  26085.93798611  .00019155  00000+0  64584-3 0   858
2 48380  53.1569 265.4758 0001073  79.3552  41.0170 15.30169037    12
STARLINK-2630           
1 48381C 21038AE  26085.93243056 -.00036185  00000+0 -12200-2 0   858
2 48381  53.1580 267.6961 0001183  82.6491  15.7933 15.30197105    19
STARLINK-2585           
1 48382C 21038AF  26085.83173611 -.00105360  00000+0 -35519-2 0   857
2 48382  53.1584 268.1682 0001206  79.9201 200.9019 15.30237298    15
STARLINK-2598           
1 48385C 21038AJ  26085.88312500 -.00050991  00000+0 -17193-2 0   854
2 48385  53.1570 265.5037 0000592  76.0416  84.7566 15.30205135    11
STARLINK-2606           
1 48386C 21038AK  26085.97965278  .00009429  00000+0  31778-3 0   855
2 48386  53.1595 265.2501 0001224  69.5465 356.0034 15.30188963    10
STARLINK-2594           
1 48388C 21038AM  26086.00673611  .00033461  00000+0  11564-2 0   863
2 48388  53.1557 264.8752 0001190  81.3138 125.7427 15.29362643    18
STARLINK-2586           
1 48390C 21038AP  26085.84909722 -.00008580  00000+0 -28934-3 0   857
2 48390  53.1583 252.9513 0001321  80.8598 319.2569 15.30179077    19
STARLINK-2607           
1 48391C 21038AQ  26085.96020833  .00020506  00000+0  70949-3 0   851
2 48391  53.1594 252.7103 0001387  83.0524  96.9979 15.29331381    11
STARLINK-2605           
1 48392C 21038AR  26085.91506944  .00016349  00000+0  55130-3 0   854
2 48392  53.1562 252.5261 0001194  75.9267  78.2221 15.30166822    11
STARLINK-2574           
1 48395C 21038AU  26085.96854167  .00034804  00000+0  11735-2 0   853
2 48395  53.1570 254.6790 0000999  72.9885 274.0042 15.30162468    17
STARLINK-2575           
1 48396C 21038AV  26086.00465278  .00011222  00000+0  37847-3 0   864
2 48396  53.1560 252.1180 0001041  74.8563 265.3241 15.30164621    13
STARLINK-2590           
1 48397C 21038AW  26085.90812500  .00059309  00000+0  19987-2 0   858
2 48397  53.1568 252.6647 0001018  79.0569  54.0076 15.30166460    14
STARLINK-2588           
1 48398C 21038AX  26085.97479167  .00063286  00000+0  32499-2 0   856
2 48398  53.0717 260.2210 0004485 163.5313 302.8680 15.15953073    10
STARLINK-2587           
1 48399C 21038AY  26085.90118056 -.00017612  00000+0 -59385-3 0   855
2 48399  53.1572 252.6548 0000847  90.4061  68.4432 15.30185844    16
STARLINK-2576           
1 48400C 21038AZ  26085.82548611 -.00039078  00000+0 -13173-2 0   857
2 48400  53.1575 253.0216 0001310  80.1609  32.9531 15.30206081    12
STARLINK-2571           
1 48401C 21038BA  26085.98659722  .00024624  00000+0  83049-3 0   850
2 48401  53.1592 252.5057 0001191  67.6903 265.5986 15.30157387    15
STARLINK-2593           
1 48404C 21038BD  26085.96506944  .00037889  00000+0  12777-2 0   854
2 48404  53.1577 252.4495 0001199  77.3026 102.6016 15.30155094    16
STARLINK-2570           
1 48405C 21038BE  26085.84076389 -.00018479  00000+0 -62303-3 0   854
2 48405  53.1564 253.2023 0001011  82.6791  56.4388 15.30189813    14
STARLINK-2568           
1 48406C 21038BF  26085.91715278  .00015156  00000+0  51112-3 0   853
2 48406  53.1571 255.5358 0000812  67.4784 106.0932 15.30164343    18
STARLINK-2592           
1 48408C 21038BH  26085.91576389  .00002203  00000+0  74307-4 0   854
2 48408  53.1562 253.0696 0001108  90.8458  43.4321 15.30168318    17
STARLINK-2563           
1 48410C 21038BK  26085.87895833  .00023744  00000+0  82143-3 0   859
2 48410  53.1557 216.3676 0001332  69.9414 272.3400 15.29333103    17
STARLINK-2505           
1 48411C 21038BL  26085.85326389  .00857190  00000+0  35497-1 0   851
2 48411  53.1286 214.0252 0001025  70.4752  79.2017 15.22969275    19
STARLINK-2581           
1 48412C 21038BM  26085.89562500  .00007229  00000+0  48448-3 0   855
2 48412  53.0539 214.8124 0001351  74.3005 265.0596 15.06387572    15
STARLINK-2461           
1 48428C 21040A   26085.89284722  .00059567  00000+0  20066-2 0   859
2 48428  53.1600  98.8263 0001092  91.0620 244.5697 15.30178527    16
STARLINK-2700           
1 48431C 21040D   26085.91993056  .00046021  00000+0  15896-2 0   859
2 48431  53.1553  72.2148 0001514  97.5480 301.0683 15.29373527    18
STARLINK-2680           
1 48432C 21040E   26085.94006944  .00020385  00000+0  13659-2 0   854
2 48432  53.0544  69.5737 0001295  85.4516 112.5651 15.06386493    14
STARLINK-2699           
1 48433C 21040F   26085.91923611 -.00040797  00000+0 -14114-2 0   859
2 48433  53.1564  72.3073 0001242  98.9104  76.1747 15.29365469    13
STARLINK-2692           
1 48434C 21040G   26085.89562500  .00051791  00000+0  17432-2 0   853
2 48434  53.1602  72.7673 0001400  81.0646 322.8190 15.30207798    12
STARLINK-2633           
1 48435C 21040H   26086.01020833  .00024265  00000+0  83803-3 0   860
2 48435  53.1564  84.7625 0001330  90.2092 324.2949 15.29388655    17
STARLINK-2639           
1 48436C 21040J   26085.92201389  .00059232  00000+0  19940-2 0   858
2 48436  53.1580  98.1264 0001128  97.3646 289.1680 15.30199517    12
STARLINK-2642           
1 48437C 21040K   26085.93590278  .00055418  00000+0  19146-2 0   858
2 48437  53.1564 110.9268 0001291  81.2319 328.9013 15.29362300    14
